{"type": "FeatureCollection", "features": [ {"type": "Feature", "properties": {"norad_id": 34738, "name": "COSMOS 2251 DEB", "group": "cosmos-2251-debris", "lat": 32.301712730857076, "lon": -56.97782443197568, "alt_km": 758.2287339073509, "timestamp": "2025-12-17T23:38:07.248503+00:00", "meta": {"OBJECT_NAME": "COSMOS 2251 DEB", "OBJECT_ID": "1993-036ZG", "EPOCH": "2025-12-17T13:35:32.858592", "MEAN_MOTION": 14.46313591, "ECCENTRICITY": 0.00474678, "INCLINATION": 74.0151, "RA_OF_ASC_NODE": 134.245, "ARG_OF_PERICENTER": 279.6086, "MEAN_ANOMALY": 209.0377, "EPHEMERIS_TYPE": 0, "CLASSIFICATION_TYPE": "U", "NORAD_CAT_ID": 34738, "ELEMENT_SET_NO": 999, "REV_AT_EPOCH": 87928, "BSTAR": 0.00027398217, "MEAN_MOTION_DOT": 9.68e-06, "MEAN_MOTION_DDOT": 0}, "tle": {"line1": "1 34738U 93036ZG  25351.56635253  .00000968  00000+0  27398-3 0  9991", "line2": "2 34738  74.0151 134.2450 0047467 279.6086 209.0377 14.46313591879289"}}, "geometry": {"type": "Point", "coordinates": [-56.97782443197568, 32.301712730857076]}}, {"type": "Feature", "properties": {"norad_id": 34750, "name": "COSMOS 2251 DEB", "group": "cosmos-2251-debris", "lat": -46.060899594835206, "lon": 28.963313518243073, "alt_km": 692.8323794506996, "timestamp": "2025-12-17T23:38:07.248513+00:00", "meta": {"OBJECT_NAME": "COSMOS 2251 DEB", "OBJECT_ID": "1993-036ZU", "EPOCH": "2025-12-17T14:38:28.998240", "MEAN_MOTION": 14.61368851, "ECCENTRICITY": 0.00386303, "INCLINATION": 74.1067, "RA_OF_ASC_NODE": 192.4788, "ARG_OF_PERICENTER": 143.9032, "MEAN_ANOMALY": 273.3438, "EPHEMERIS_TYPE": 0, "CLASSIFICATION_TYPE": "U", "NORAD_CAT_ID": 34750, "ELEMENT_SET_NO": 999, "REV_AT_EPOCH": 88302, "BSTAR": 0.00077634105, "MEAN_MOTION_DOT": 3.852e-05, "MEAN_MOTION_DDOT": 0}, "tle": {"line1": "1 34750U 93036ZU  25351.61005785  .00003852  00000+0  77634-3 0  9995", "line2": "2 34750  74.1067 192.4788 0038630 143.9032 273.3438 14.61368851883021"}}, "geometry": {"type": "Point", "coordinates": [28.963313518243073, -46.060899594835206]}}, {"type": "Feature", "properties": {"norad_id": 34752, "name": "COSMOS 2251 DEB", "group": "cosmos-2251-debris", "lat": 16.60546115957546, "lon": -5.16574854449544, "alt_km": 572.1861303492624, "timestamp": "2025-12-17T23:38:07.248523+00:00", "meta": {"OBJECT_NAME": "COSMOS 2251 DEB", "OBJECT_ID": "1993-036ZW", "EPOCH": "2025-12-17T09:09:08.925984", "MEAN_MOTION": 15.00033267, "ECCENTRICITY": 0.00475817, "INCLINATION": 74.0129, "RA_OF_ASC_NODE": 351.1573, "ARG_OF_PERICENTER": 117.9968, "MEAN_ANOMALY": 242.6045, "EPHEMERIS_TYPE": 0, "CLASSIFICATION_TYPE": "U", "NORAD_CAT_ID": 34752, "ELEMENT_SET_NO": 999, "REV_AT_EPOCH": 89919, "BSTAR": 0.00068132455, "MEAN_MOTION_DOT": 8.656e-05, "MEAN_MOTION_DDOT": 0}, "tle": {"line1": "1 34752U 93036ZW  25351.38135331  .00008656  00000+0  68132-3 0  9992", "line2": "2 34752  74.0129 351.1573 0047581 117.9968 242.6045 15.00033267899193"}}, "geometry": {"type": "Point", "coordinates": [-5.16574854449544, 16.60546115957546]}}, {"type": "Feature", "properties": {"norad_id": 34754, "name": "COSMOS 2251 DEB", "group": "cosmos-2251-debris", "lat": -48.36734637726897, "lon": -160.89354807198242, "alt_km": 743.9485455172144, "timestamp": "2025-12-17T23:38:07.248532+00:00", "meta": {"OBJECT_NAME": "COSMOS 2251 DEB", "OBJECT_ID": "1993-036ZY", "EPOCH": "2025-12-17T10:50:05.239392", "MEAN_MOTION": 14.40488373, "ECCENTRICITY": 0.00297582, "INCLINATION": 74.0298, "RA_OF_ASC_NODE": 218.8872, "ARG_OF_PERICENTER": 334.0809, "MEAN_ANOMALY": 90.3642, "EPHEMERIS_TYPE": 0, "CLASSIFICATION_TYPE": "U", "NORAD_CAT_ID": 34754, "ELEMENT_SET_NO": 999, "REV_AT_EPOCH": 88201, "BSTAR": 0.00017734263, "MEAN_MOTION_DOT": 5.4e-06, "MEAN_MOTION_DDOT": 0}, "tle": {"line1": "1 34754U 93036ZY  25351.45144953  .00000540  00000+0  17734-3 0  9998", "line2": "2 34754  74.0298 218.8872 0029758 334.0809  90.3642 14.40488373882014"}}, "geometry": {"type": "Point", "coordinates": [-160.89354807198242, -48.36734637726897]}}, {"type": "Feature", "properties": {"norad_id": 34755, "name": "COSMOS 2251 DEB", "group": "cosmos-2251-debris", "lat": 20.76558510101864, "lon": 95.31769365414364, "alt_km": 1305.2509020935713, "timestamp": "2025-12-17T23:38:07.248542+00:00", "meta": {"OBJECT_NAME": "COSMOS 2251 DEB", "OBJECT_ID": "1993-036ZZ", "EPOCH": "2025-12-17T05:50:06.069984", "MEAN_MOTION": 13.50569003, "ECCENTRICITY": 0.04081843, "INCLINATION": 73.926, "RA_OF_ASC_NODE": 282.7855, "ARG_OF_PERICENTER": 301.8273, "MEAN_ANOMALY": 214.5982, "EPHEMERIS_TYPE": 0, "CLASSIFICATION_TYPE": "U", "NORAD_CAT_ID": 34755, "ELEMENT_SET_NO": 999, "REV_AT_EPOCH": 82584, "BSTAR": 0.00078980416, "MEAN_MOTION_DOT": 8.28e-06, "MEAN_MOTION_DDOT": 0}, "tle": {"line1": "1 34755U 93036ZZ  25351.24312581  .00000828  00000+0  78980-3 0  9999", "line2": "2 34755  73.9260 282.7855 0408184 301.8273 214.5982 13.50569003825849"}}, "geometry": {"type": "Point", "coordinates": [95.31769365414364, 20.76558510101864]}}, {"type": "Feature", "properties": {"norad_id": 34756, "name": "COSMOS 2251 DEB", "group": "cosmos-2251-debris", "lat": 23.971961273697666, "lon": 103.07320200355466, "alt_km": 855.1483670613152, "timestamp": "2025-12-17T23:38:07.248553+00:00", "meta": {"OBJECT_NAME": "COSMOS 2251 DEB", "OBJECT_ID": "1993-036AAA", "EPOCH": "2025-12-16T08:53:18.201984", "MEAN_MOTION": 13.67251835, "ECCENTRICITY": 0.03452801, "INCLINATION": 74.003, "RA_OF_ASC_NODE": 98.3991, "ARG_OF_PERICENTER": 333.4281, "MEAN_ANOMALY": 24.9484, "EPHEMERIS_TYPE": 0, "CLASSIFICATION_TYPE": "U", "NORAD_CAT_ID": 34756, "ELEMENT_SET_NO": 999, "REV_AT_EPOCH": 83471, "BSTAR": 0.00093292845, "MEAN_MOTION_DOT": 1.159e-05, "MEAN_MOTION_DDOT": 0}, "tle": {"line1": "1 34756U 93036AAA 25350.37034956  .00001159  00000+0  93293-3 0  9992", "line2": "2 34756  74.0030  98.3991 0345280 333.4281  24.9484 13.67251835834711"}}, "geometry": {"type": "Point", "coordinates": [103.07320200355466, 23.971961273697666]}}, {"type": "Feature", "properties": {"norad_id": 34758, "name": "COSMOS 2251 DEB", "group": "cosmos-2251-debris", "lat": -41.07019775596864, "lon": -83.3185904891284, "alt_km": 1070.3757299315012, "timestamp": "2025-12-17T23:38:07.248563+00:00", "meta": {"OBJECT_NAME": "COSMOS 2251 DEB", "OBJECT_ID": "1993-036AAC", "EPOCH": "2025-12-17T06:09:51.620544", "MEAN_MOTION": 13.58084731, "ECCENTRICITY": 0.03816404, "INCLINATION": 74.1075, "RA_OF_ASC_NODE": 292.2273, "ARG_OF_PERICENTER": 54.8808, "MEAN_ANOMALY": 308.7451, "EPHEMERIS_TYPE": 0, "CLASSIFICATION_TYPE": "U", "NORAD_CAT_ID": 34758, "ELEMENT_SET_NO": 999, "REV_AT_EPOCH": 82971, "BSTAR": 0.001447828, "MEAN_MOTION_DOT": 1.667e-05, "MEAN_MOTION_DDOT": 0}, "tle": {"line1": "1 34758U 93036AAC 25351.25684746  .00001667  00000+0  14478-2 0  9991", "line2": "2 34758  74.1075 292.2273 0381640  54.8808 308.7451 13.58084731829710"}}, "geometry": {"type": "Point", "coordinates": [-83.3185904891284, -41.07019775596864]}}, {"type": "Feature", "properties": {"norad_id": 34760, "name": "COSMOS 2251 DEB", "group": "cosmos-2251-debris", "lat": -63.89965222852501, "lon": -102.67681775189405, "alt_km": 791.0652160681875, "timestamp": "2025-12-17T23:38:07.248573+00:00", "meta": {"OBJECT_NAME": "COSMOS 2251 DEB", "OBJECT_ID": "1993-036AAE", "EPOCH": "2025-12-15T15:17:34.568160", "MEAN_MOTION": 14.19579445, "ECCENTRICITY": 0.00969523, "INCLINATION": 74.0638, "RA_OF_ASC_NODE": 297.1884, "ARG_OF_PERICENTER": 348.6722, "MEAN_ANOMALY": 190.5489, "EPHEMERIS_TYPE": 0, "CLASSIFICATION_TYPE": "U", "NORAD_CAT_ID": 34760, "ELEMENT_SET_NO": 999, "REV_AT_EPOCH": 86729, "BSTAR": 0.00062937679, "MEAN_MOTION_DOT": 1.367e-05, "MEAN_MOTION_DDOT": 0}, "tle": {"line1": "1 34760U 93036AAE 25349.63720565  .00001367  00000+0  62938-3 0  9995", "line2": "2 34760  74.0638 297.1884 0096952 348.6722 190.5489 14.19579445867299"}}, "geometry": {"type": "Point", "coordinates": [-102.67681775189405, -63.89965222852501]}}, {"type": "Feature", "properties": {"norad_id": 34761, "name": "COSMOS 2251 DEB", "group": "cosmos-2251-debris", "lat": -19.82863422939393, "lon": 179.0530961081013, "alt_km": 795.7606963279759, "timestamp": "2025-12-17T23:38:07.248583+00:00", "meta": {"OBJECT_NAME": "COSMOS 2251 DEB", "OBJECT_ID": "1993-036AAF", "EPOCH": "2025-12-17T09:21:00.727200", "MEAN_MOTION": 14.3806575, "ECCENTRICITY": 0.00366444, "INCLINATION": 74.0292, "RA_OF_ASC_NODE": 354.2223, "ARG_OF_PERICENTER": 26.9258, "MEAN_ANOMALY": 333.3787, "EPHEMERIS_TYPE": 0, "CLASSIFICATION_TYPE": "U", "NORAD_CAT_ID": 34761, "ELEMENT_SET_NO": 999, "REV_AT_EPOCH": 87716, "BSTAR": 0.00049544142, "MEAN_MOTION_DOT": 1.486e-05, "MEAN_MOTION_DDOT": 0}, "tle": {"line1": "1 34761U 93036AAF 25351.38959175  .00001486  00000+0  49544-3 0  9992", "line2": "2 34761  74.0292 354.2223 0036644  26.9258 333.3787 14.38065750877165"}}, "geometry": {"type": "Point", "coordinates": [179.0530961081013, -19.82863422939393]}}, {"type": "Feature", "properties": {"norad_id": 34784, "name": "COSMOS 2251 DEB", "group": "cosmos-2251-debris", "lat": 37.55018516436216, "lon": 121.57909034661459, "alt_km": 654.4697631985337, "timestamp": "2025-12-17T23:38:07.248593+00:00", "meta": {"OBJECT_NAME": "COSMOS 2251 DEB", "OBJECT_ID": "1993-036AAM", "EPOCH": "2025-12-17T14:46:44.579136", "MEAN_MOTION": 14.60801417, "ECCENTRICITY": 0.00492401, "INCLINATION": 74.007, "RA_OF_ASC_NODE": 315.0218, "ARG_OF_PERICENTER": 122.9078, "MEAN_ANOMALY": 237.684, "EPHEMERIS_TYPE": 0, "CLASSIFICATION_TYPE": "U", "NORAD_CAT_ID": 34784, "ELEMENT_SET_NO": 999, "REV_AT_EPOCH": 88606, "BSTAR": 0.00036809444, "MEAN_MOTION_DOT": 1.798e-05, "MEAN_MOTION_DDOT": 0}, "tle": {"line1": "1 34784U 93036AAM 25351.61579374  .00001798  00000+0  36809-3 0  9998", "line2": "2 34784  74.0070 315.0218 0049240 122.9078 237.6840 14.60801417886064"}}, "geometry": {"type": "Point", "coordinates": [121.57909034661459, 37.55018516436216]}}]}